SENTINEL-1A             
1 39634U 14016A   26190.85890619 -.00000144  00000+0 -20937-4 0  9996
2 39634  98.1788 198.0605 0001443  86.7689 273.3676 14.59199000653324
SENTINEL-1C             
1 62261U 24235A   26190.82973147  .00000065  00000+0  23452-4 0  9992
2 62261  98.1821 197.8156 0001379  89.7884 270.3474 14.59197456 84717
SENTINEL-1D             
1 66315U 25251A   26190.72702641 -.00000023  00000+0  48751-5 0  9998
2 66315  98.1830 197.7693 0001385  90.8533 269.2825 14.59197989 36015
