{"fetched_at":"2026-07-10T07:59:19.508Z","source":"https://celestrak.org/NORAD/elements/gp.php?NAME=SENTINEL&FORMAT=JSON","constellation":"sentinel-1","records":[{"OBJECT_NAME":"SENTINEL-1A","OBJECT_ID":"2014-016A","EPOCH":"2026-07-09T20:36:49.494816","CLASSIFICATION_TYPE":"U","MEAN_MOTION":14.59199,"ECCENTRICITY":0.0001443,"INCLINATION":98.1788,"RA_OF_ASC_NODE":198.0605,"ARG_OF_PERICENTER":86.7689,"MEAN_ANOMALY":273.3676,"EPHEMERIS_TYPE":0,"NORAD_CAT_ID":39634,"ELEMENT_SET_NO":999,"REV_AT_EPOCH":65332,"BSTAR":-0.000020937,"MEAN_MOTION_DOT":-0.00000144,"MEAN_MOTION_DDOT":0},{"OBJECT_NAME":"SENTINEL-1C","OBJECT_ID":"2024-235A","EPOCH":"2026-07-09T19:54:48.799008","CLASSIFICATION_TYPE":"U","MEAN_MOTION":14.59197456,"ECCENTRICITY":0.0001379,"INCLINATION":98.1821,"RA_OF_ASC_NODE":197.8156,"ARG_OF_PERICENTER":89.7884,"MEAN_ANOMALY":270.3474,"EPHEMERIS_TYPE":0,"NORAD_CAT_ID":62261,"ELEMENT_SET_NO":999,"REV_AT_EPOCH":8471,"BSTAR":0.000023452,"MEAN_MOTION_DOT":6.5e-7,"MEAN_MOTION_DDOT":0},{"OBJECT_NAME":"SENTINEL-1D","OBJECT_ID":"2025-251A","EPOCH":"2026-07-09T17:26:55.081824","CLASSIFICATION_TYPE":"U","MEAN_MOTION":14.59197989,"ECCENTRICITY":0.0001385,"INCLINATION":98.183,"RA_OF_ASC_NODE":197.7693,"ARG_OF_PERICENTER":90.8533,"MEAN_ANOMALY":269.2825,"EPHEMERIS_TYPE":0,"NORAD_CAT_ID":66315,"ELEMENT_SET_NO":999,"REV_AT_EPOCH":3601,"BSTAR":0.0000048751,"MEAN_MOTION_DOT":-2.3e-7,"MEAN_MOTION_DDOT":0}]}
